{
    "links": {
        "self": "http://www.neowsapp.com/rest/v1/neo/3780674?api_key=iIulBulltgU6a56xZRHN4H3l9WmuAYTsLGpBGhQ2"
    },
    "id": "3780674",
    "neo_reference_id": "3780674",
    "name": "(2017 QA)",
    "designation": "2017 QA",
    "nasa_jpl_url": "http://ssd.jpl.nasa.gov/sbdb.cgi?sstr=3780674",
    "absolute_magnitude_h": 23.8,
    "estimated_diameter": {
        "kilometers": {
            "estimated_diameter_min": 0.046190746,
            "estimated_diameter_max": 0.1032856481
        },
        "meters": {
            "estimated_diameter_min": 46.1907460282,
            "estimated_diameter_max": 103.2856480504
        },
        "miles": {
            "estimated_diameter_min": 0.0287015901,
            "estimated_diameter_max": 0.0641787064
        },
        "feet": {
            "estimated_diameter_min": 151.544447199,
            "estimated_diameter_max": 338.8636855496
        }
    },
    "is_potentially_hazardous_asteroid": false,
    "close_approach_data": [
        {
            "close_approach_date": "2017-08-12",
            "close_approach_date_full": "2017-Aug-12 07:41",
            "epoch_date_close_approach": 1502523660000,
            "relative_velocity": {
                "kilometers_per_second": "9.7902391148",
                "kilometers_per_hour": "35244.8608132631",
                "miles_per_hour": "21899.7858758856"
            },
            "miss_distance": {
                "astronomical": "0.1432704559",
                "lunar": "55.7322073451",
                "kilometers": "21432955.036568933",
                "miles": "13317820.7041719554"
            },
            "orbiting_body": "Earth"
        }
    ],
    "orbital_data": {
        "orbit_id": "2",
        "orbit_determination_date": "2017-08-29 06:20:02",
        "first_observation_date": "2017-08-15",
        "last_observation_date": "2017-08-29",
        "data_arc_in_days": 14,
        "observations_used": 12,
        "orbit_uncertainty": "8",
        "minimum_orbit_intersection": ".142784",
        "jupiter_tisserand_invariant": "5.124",
        "epoch_osculation": "2457981.5",
        "eccentricity": ".0666160688438886",
        "semi_major_axis": "1.237045019415393",
        "inclination": "19.37860554629153",
        "ascending_node_longitude": "319.7806337854597",
        "orbital_period": "502.5469996534757",
        "perihelion_distance": "1.154637943239028",
        "perihelion_argument": "11.30922331889087",
        "aphelion_distance": "1.319452095591759",
        "perihelion_time": "2457992.491295804014",
        "mean_anomaly": "352.1263752600782",
        "mean_motion": ".7163509089661922",
        "equinox": "J2000",
        "orbit_class": {
            "orbit_class_type": "AMO",
            "orbit_class_description": "Near-Earth asteroid orbits similar to that of 1221 Amor",
            "orbit_class_range": "1.017 AU < q (perihelion) < 1.3 AU"
        }
    },
    "is_sentry_object": false
}